MONOLITH                
1 49052U 21068A   26068.54548855  .00008348  00000+0  53656-3 0  9993
2 49052  37.0220 141.2957 0002679 131.6464 228.4511 15.08010119252226
STARLINK-4590           
1 53606U 22104U   26068.69124645 -.00000371  00000+0 -51996-5 0  9995
2 53606  53.2171 234.2281 0001238  91.6865 268.4269 15.08834999195639
